OBJECT_NAME,OBJECT_ID,EPOCH,MEAN_MOTION,ECCENTRICITY,INCLINATION,RA_OF_ASC_NODE,ARG_OF_PERICENTER,MEAN_ANOMALY,EPHEMERIS_TYPE,CLASSIFICATION_TYPE,NORAD_CAT_ID,ELEMENT_SET_NO,REV_AT_EPOCH,BSTAR,MEAN_MOTION_DOT,MEAN_MOTION_DDOT
HODOYOSHI-4,2014-033B,2026-07-02T18:26:02.644224,14.88162501,.0022034,97.5449,7.8386,253.4543,106.4254,0,U,40011,999,65112,.11088E-3,.973E-5,0
DEIMOS-2,2014-033D,2026-07-02T17:22:54.484608,14.93765014,.0000832,97.5804,57.6659,74.1206,286.0106,0,U,40013,999,64004,.14559E-3,.1488E-4,0
HODOYOSHI-3,2014-033F,2026-07-02T09:49:03.952128,14.85418387,.0031571,97.6433,345.8382,306.0133,53.8157,0,U,40015,999,64988,.12818E-3,.1061E-4,0
SPOT 7,2014-034A,2026-07-02T17:29:04.230816,14.60971734,.0001426,98.0623,245.8195,96.0598,264.0766,0,U,40053,999,63940,.9949E-4,.442E-5,0
SKYSAT-B,2014-037D,2026-07-02T10:57:24.273216,14.88066717,.0004586,98.3846,143.2927,217.7450,142.3444,0,U,40072,999,64823,.1684E-3,.1487E-4,0
WORLDVIEW-3 (WV-3),2014-048A,2026-07-02T17:34:13.292256,14.85048174,.000029,97.8562,258.3502,168.5012,191.6209,0,U,40115,999,64421,.12793E-3,.1039E-4,0
GAOFEN-2,2014-049A,2026-07-02T18:49:32.433888,14.80913291,.0007246,98.0104,247.9763,171.9132,188.2198,0,U,40118,999,64154,.20803E-4,.107E-5,0
YAOGAN-21,2014-053A,2026-07-02T18:20:17.426976,15.26604450,.0009183,97.1462,223.3318,48.0519,312.1502,0,U,40143,999,65733,.24516E-3,.6357E-4,0
YAOGAN-22,2014-063A,2026-07-02T16:48:08.856000,13.15531196,.000667,100.7745,335.2322,151.5172,208.6305,0,U,40275,999,56185,.33735E-5,-.46E-6,0
ASNARO,2014-070A,2026-07-02T18:23:09.355200,15.19667243,.00066,97.3447,259.4607,120.5909,239.5977,0,U,40298,999,64637,.39507E-3,.8369E-4,0
YAOGAN-24,2014-072A,2026-07-02T17:45:53.286048,14.76105206,.0013609,98.1511,321.2097,210.4704,149.5716,0,U,40310,999,62601,.15449E-3,.1014E-4,0
CBERS 4,2014-079A,2026-07-02T18:57:21.299040,14.35512802,.000132,98.3524,240.1315,51.2104,308.9200,0,U,40336,999,60619,.41825E-5,-.3E-6,0
YAOGAN-26,2014-088A,2026-07-02T18:43:54.367104,15.47985828,.0003868,97.0641,183.6296,31.1690,328.9790,0,U,40362,999,64011,.38873E-3,.20246E-3,0
SMAP,2015-003A,2026-07-02T17:42:43.956864,14.63380634,.0001484,98.1277,190.6122,97.6036,262.5335,0,U,40376,999,60989,.10883E-3,.516E-5,0
KOMPSAT-3A,2015-014A,2026-07-02T18:09:52.945056,15.54787847,.005714,97.6887,176.2660,119.2229,241.4756,0,U,40536,999,62423,.44374E-3,.31704E-3,0
SENTINEL-2A,2015-028A,2026-07-02T17:44:24.143712,14.30820522,.0001202,98.5685,258.3700,93.8956,266.2364,0,U,40697,999,57595,.14718E-3,.342E-5,0
GAOFEN-8,2015-030A,2026-07-02T19:31:44.847264,15.46534262,.0009674,97.6891,18.1269,133.6428,226.5624,0,U,40701,999,61386,.46389E-3,.23026E-3,0
CARBONITE 1 (CBNT-1),2015-032D,2026-07-02T18:17:36.763584,14.83634002,.0013034,97.6508,1.1766,241.4631,118.5272,0,U,40718,999,59165,.20521E-3,.1644E-4,0
YAOGAN-27,2015-040A,2026-07-02T18:21:24.564096,13.16072008,.0008156,100.1157,169.4719,173.0844,187.0384,0,U,40878,999,51971,.37982E-3,.102E-5,0
GAOFEN-9 01,2015-047A,2026-07-02T18:50:02.040576,14.82915465,.0028898,97.6268,218.7704,89.1259,271.3266,0,U,40894,999,58250,.15608E-3,.1224E-4,0
YAOGAN-28,2015-064A,2026-07-02T18:47:03.172704,15.27622686,.0011789,97.3099,321.7294,131.5915,228.6337,0,U,41026,999,59306,.29458E-3,.7899E-4,0
YAOGAN-29,2015-069A,2026-07-02T18:18:32.584032,14.83096582,.0001693,98.0017,212.4196,29.2888,330.8420,0,U,41038,999,57293,.42536E-4,.292E-5,0
KENT RIDGE 1,2015-077B,2026-07-02T13:15:07.930368,15.23222620,.0008149,14.9783,151.7072,96.0484,264.0766,0,U,41167,999,58344,.15511E-3,.4552E-4,0
GAOFEN-4,2015-083A,2026-07-01T14:31:54.862176,1.00268667,.00042432,0.3936,83.8387,111.7154,47.7566,0,U,41194,999,3867,0,-.324E-5,0
JASON-3,2016-002A,2026-07-02T18:28:26.435424,12.87623278,.0008308,66.0417,93.0758,271.8824,88.1243,0,U,41240,999,48925,.99072E-4,-.37E-6,0
SENTINEL-3A,2016-011A,2026-07-02T18:50:58.903008,14.26737057,.0001424,98.6243,250.9446,94.5216,265.6127,0,U,41335,999,54028,.7413E-4,.136E-5,0
ZIYUAN 3-02 (ZY 3-02),2016-033A,2026-07-02T18:41:28.188672,15.21328985,.001288,97.3832,259.2532,230.2490,129.7612,0,U,41556,999,56035,.25671E-3,.5691E-4,0
CARTOSAT-2C,2016-040A,2026-07-02T09:45:52.812864,15.19310275,.0010537,97.4476,243.1756,85.9757,274.2682,0,U,41599,999,55602,.16404E-3,.3399E-4,0
SKYSAT-C1,2016-040C,2026-07-02T00:00:55.848096,15.36552453,.00018777,96.9550,213.9188,25.1186,335.0150,0,U,41601,999,56014,.30140118E-3,.10682E-3,0
LAPAN-A3,2016-040E,2026-07-02T18:57:42.895584,15.33207386,.0008961,97.1492,179.4242,329.2381,30.8336,0,U,41603,999,55720,.13626E-3,.43E-4,0
GAOFEN-3,2016-049A,2026-07-02T18:19:17.854176,14.42216937,.0001691,98.4007,191.3140,94.2083,265.9300,0,U,41727,999,52089,-.11578E-4,-.82E-6,0
